{"type": "FeatureCollection", "features": [ {"type": "Feature", "properties": {"norad_id": 30358, "name": "FENGYUN 1C DEB", "group": "fengyun-1c-debris", "lat": -65.49763726085077, "lon": -13.545354943517287, "alt_km": 816.203224920615, "timestamp": "2025-12-22T22:44:21.251348+00:00", "meta": {"OBJECT_NAME": "FENGYUN 1C DEB", "OBJECT_ID": "1999-025ABV", "EPOCH": "2025-12-22T11:35:08.546784", "MEAN_MOTION": 14.20733778, "ECCENTRICITY": 0.00825453, "INCLINATION": 98.5542, "RA_OF_ASC_NODE": 185.288, "ARG_OF_PERICENTER": 171.2718, "MEAN_ANOMALY": 219.1263, "EPHEMERIS_TYPE": 0, "CLASSIFICATION_TYPE": "U", "NORAD_CAT_ID": 30358, "ELEMENT_SET_NO": 999, "REV_AT_EPOCH": 97056, "BSTAR": 0.0015537611, "MEAN_MOTION_DOT": 3.427e-05, "MEAN_MOTION_DDOT": 0}, "tle": {"line1": "1 30358U 99025ABV 25356.48273781  .00003427  00000+0  15538-2 0  9994", "line2": "2 30358  98.5542 185.2880 0082545 171.2718 219.1263 14.20733778970560"}}, "geometry": {"type": "Point", "coordinates": [-13.545354943517287, -65.49763726085077]}}, {"type": "Feature", "properties": {"norad_id": 30359, "name": "FENGYUN 1C DEB", "group": "fengyun-1c-debris", "lat": 12.02763685464645, "lon": -177.25666903902152, "alt_km": 853.8573344079314, "timestamp": "2025-12-22T22:44:21.251358+00:00", "meta": {"OBJECT_NAME": "FENGYUN 1C DEB", "OBJECT_ID": "1999-025ABW", "EPOCH": "2025-12-18T08:26:45.407616", "MEAN_MOTION": 13.94038268, "ECCENTRICITY": 0.01455024, "INCLINATION": 101.6263, "RA_OF_ASC_NODE": 179.4894, "ARG_OF_PERICENTER": 328.6442, "MEAN_ANOMALY": 30.6094, "EPHEMERIS_TYPE": 0, "CLASSIFICATION_TYPE": "U", "NORAD_CAT_ID": 30359, "ELEMENT_SET_NO": 999, "REV_AT_EPOCH": 95147, "BSTAR": 0.0022120096, "MEAN_MOTION_DOT": 3.132e-05, "MEAN_MOTION_DDOT": 0}, "tle": {"line1": "1 30359U 99025ABW 25352.35191444  .00003132  00000+0  22120-2 0  9990", "line2": "2 30359 101.6263 179.4894 0145502 328.6442  30.6094 13.94038268951471"}}, "geometry": {"type": "Point", "coordinates": [-177.25666903902152, 12.02763685464645]}}, {"type": "Feature", "properties": {"norad_id": 30360, "name": "FENGYUN 1C DEB", "group": "fengyun-1c-debris", "lat": 46.5539855658946, "lon": -104.06920600946566, "alt_km": 777.5805720789094, "timestamp": "2025-12-22T22:44:21.251368+00:00", "meta": {"OBJECT_NAME": "FENGYUN 1C DEB", "OBJECT_ID": "1999-025ABX", "EPOCH": "2025-12-22T03:51:37.388160", "MEAN_MOTION": 14.26566291, "ECCENTRICITY": 0.00309243, "INCLINATION": 98.7643, "RA_OF_ASC_NODE": 65.7698, "ARG_OF_PERICENTER": 120.4414, "MEAN_ANOMALY": 294.6103, "EPHEMERIS_TYPE": 0, "CLASSIFICATION_TYPE": "U", "NORAD_CAT_ID": 30360, "ELEMENT_SET_NO": 999, "REV_AT_EPOCH": 97559, "BSTAR": 0.0014990851, "MEAN_MOTION_DOT": 3.592e-05, "MEAN_MOTION_DDOT": 0}, "tle": {"line1": "1 30360U 99025ABX 25356.16084940  .00003592  00000+0  14991-2 0  9994", "line2": "2 30360  98.7643  65.7698 0030924 120.4414 294.6103 14.26566291975598"}}, "geometry": {"type": "Point", "coordinates": [-104.06920600946566, 46.5539855658946]}}, {"type": "Feature", "properties": {"norad_id": 30361, "name": "FENGYUN 1C DEB", "group": "fengyun-1c-debris", "lat": -10.268117965488909, "lon": -148.92411083394546, "alt_km": 857.2667789435745, "timestamp": "2025-12-22T22:44:21.251379+00:00", "meta": {"OBJECT_NAME": "FENGYUN 1C DEB", "OBJECT_ID": "1999-025ABY", "EPOCH": "2025-12-22T01:37:57.124992", "MEAN_MOTION": 14.25390353, "ECCENTRICITY": 0.00648252, "INCLINATION": 98.5686, "RA_OF_ASC_NODE": 31.7819, "ARG_OF_PERICENTER": 3.2928, "MEAN_ANOMALY": 356.8665, "EPHEMERIS_TYPE": 0, "CLASSIFICATION_TYPE": "U", "NORAD_CAT_ID": 30361, "ELEMENT_SET_NO": 999, "REV_AT_EPOCH": 97749, "BSTAR": 0.00077032729, "MEAN_MOTION_DOT": 1.814e-05, "MEAN_MOTION_DDOT": 0}, "tle": {"line1": "1 30361U 99025ABY 25356.06802228  .00001814  00000+0  77033-3 0  9993", "line2": "2 30361  98.5686  31.7819 0064825   3.2928 356.8665 14.25390353977495"}}, "geometry": {"type": "Point", "coordinates": [-148.92411083394546, -10.268117965488909]}}, {"type": "Feature", "properties": {"norad_id": 30362, "name": "FENGYUN 1C DEB", "group": "fengyun-1c-debris", "lat": 60.245238999273596, "lon": -96.3469048139179, "alt_km": 865.5380213848221, "timestamp": "2025-12-22T22:44:21.251389+00:00", "meta": {"OBJECT_NAME": "FENGYUN 1C DEB", "OBJECT_ID": "1999-025ABZ", "EPOCH": "2025-12-21T17:32:14.176032", "MEAN_MOTION": 14.11900374, "ECCENTRICITY": 0.0095147, "INCLINATION": 99.0511, "RA_OF_ASC_NODE": 278.6163, "ARG_OF_PERICENTER": 318.8131, "MEAN_ANOMALY": 40.5887, "EPHEMERIS_TYPE": 0, "CLASSIFICATION_TYPE": "U", "NORAD_CAT_ID": 30362, "ELEMENT_SET_NO": 999, "REV_AT_EPOCH": 96295, "BSTAR": 0.0019478986, "MEAN_MOTION_DOT": 3.669e-05, "MEAN_MOTION_DDOT": 0}, "tle": {"line1": "1 30362U 99025ABZ 25355.73071963  .00003669  00000+0  19479-2 0  9990", "line2": "2 30362  99.0511 278.6163 0095147 318.8131  40.5887 14.11900374962958"}}, "geometry": {"type": "Point", "coordinates": [-96.3469048139179, 60.245238999273596]}}, {"type": "Feature", "properties": {"norad_id": 30363, "name": "FENGYUN 1C DEB", "group": "fengyun-1c-debris", "lat": 39.84383727388437, "lon": -104.13402962898205, "alt_km": 868.6659579207353, "timestamp": "2025-12-22T22:44:21.251399+00:00", "meta": {"OBJECT_NAME": "FENGYUN 1C DEB", "OBJECT_ID": "1999-025ACA", "EPOCH": "2025-12-21T03:43:07.217760", "MEAN_MOTION": 14.16918178, "ECCENTRICITY": 0.0078708, "INCLINATION": 99.0309, "RA_OF_ASC_NODE": 66.4202, "ARG_OF_PERICENTER": 14.8136, "MEAN_ANOMALY": 345.5319, "EPHEMERIS_TYPE": 0, "CLASSIFICATION_TYPE": "U", "NORAD_CAT_ID": 30363, "ELEMENT_SET_NO": 999, "REV_AT_EPOCH": 96943, "BSTAR": 0.00097037605, "MEAN_MOTION_DOT": 1.961e-05, "MEAN_MOTION_DDOT": 0}, "tle": {"line1": "1 30363U 99025ACA 25355.15494465  .00001961  00000+0  97038-3 0  9994", "line2": "2 30363  99.0309  66.4202 0078708  14.8136 345.5319 14.16918178969437"}}, "geometry": {"type": "Point", "coordinates": [-104.13402962898205, 39.84383727388437]}}, {"type": "Feature", "properties": {"norad_id": 30364, "name": "FENGYUN 1C DEB", "group": "fengyun-1c-debris", "lat": -81.84417362905144, "lon": 5.749702041802522, "alt_km": 618.0164729139251, "timestamp": "2025-12-22T22:44:21.251410+00:00", "meta": {"OBJECT_NAME": "FENGYUN 1C DEB", "OBJECT_ID": "1999-025ACB", "EPOCH": "2025-12-20T05:48:41.703840", "MEAN_MOTION": 14.17252409, "ECCENTRICITY": 0.0331213, "INCLINATION": 98.1374, "RA_OF_ASC_NODE": 269.9705, "ARG_OF_PERICENTER": 298.5118, "MEAN_ANOMALY": 217.2332, "EPHEMERIS_TYPE": 0, "CLASSIFICATION_TYPE": "U", "NORAD_CAT_ID": 30364, "ELEMENT_SET_NO": 999, "REV_AT_EPOCH": 95747, "BSTAR": 0.0020876, "MEAN_MOTION_DOT": 7.201e-05, "MEAN_MOTION_DDOT": 0}, "tle": {"line1": "1 30364U 99025ACB 25354.24214935  .00007201  00000+0  20876-2 0  9994", "line2": "2 30364  98.1374 269.9705 0331213 298.5118 217.2332 14.17252409957472"}}, "geometry": {"type": "Point", "coordinates": [5.749702041802522, -81.84417362905144]}}, {"type": "Feature", "properties": {"norad_id": 30365, "name": "FENGYUN 1C DEB", "group": "fengyun-1c-debris", "lat": -0.7231110136520187, "lon": 170.94472086879924, "alt_km": 846.8431303188463, "timestamp": "2025-12-22T22:44:21.251420+00:00", "meta": {"OBJECT_NAME": "FENGYUN 1C DEB", "OBJECT_ID": "1999-025ACC", "EPOCH": "2025-12-22T12:19:30.637920", "MEAN_MOTION": 14.19239578, "ECCENTRICITY": 0.01680693, "INCLINATION": 98.6194, "RA_OF_ASC_NODE": 350.6321, "ARG_OF_PERICENTER": 83.366, "MEAN_ANOMALY": 39.5847, "EPHEMERIS_TYPE": 0, "CLASSIFICATION_TYPE": "U", "NORAD_CAT_ID": 30365, "ELEMENT_SET_NO": 999, "REV_AT_EPOCH": 97751, "BSTAR": 0.00020268829, "MEAN_MOTION_DOT": 4.47e-06, "MEAN_MOTION_DDOT": 0}, "tle": {"line1": "1 30365U 99025ACC 25356.51354905  .00000447  00000+0  20269-3 0  9991", "line2": "2 30365  98.6194 350.6321 0168069  83.3660  39.5847 14.19239578977516"}}, "geometry": {"type": "Point", "coordinates": [170.94472086879924, -0.7231110136520187]}}, {"type": "Feature", "properties": {"norad_id": 30366, "name": "FENGYUN 1C DEB", "group": "fengyun-1c-debris", "lat": 67.88599844283998, "lon": -107.99830058747953, "alt_km": 795.0141581994303, "timestamp": "2025-12-22T22:44:21.251430+00:00", "meta": {"OBJECT_NAME": "FENGYUN 1C DEB", "OBJECT_ID": "1999-025ACD", "EPOCH": "2025-12-21T18:11:31.842816", "MEAN_MOTION": 14.33509976, "ECCENTRICITY": 0.00622889, "INCLINATION": 98.9241, "RA_OF_ASC_NODE": 273.5244, "ARG_OF_PERICENTER": 192.5437, "MEAN_ANOMALY": 222.9045, "EPHEMERIS_TYPE": 0, "CLASSIFICATION_TYPE": "U", "NORAD_CAT_ID": 30366, "ELEMENT_SET_NO": 999, "REV_AT_EPOCH": 98452, "BSTAR": 0.00035296306, "MEAN_MOTION_DOT": 9.5e-06, "MEAN_MOTION_DDOT": 0}, "tle": {"line1": "1 30366U 99025ACD 25355.75800744  .00000950  00000+0  35296-3 0  9999", "line2": "2 30366  98.9241 273.5244 0062288 192.5437 222.9045 14.33509976984526"}}, "geometry": {"type": "Point", "coordinates": [-107.99830058747953, 67.88599844283998]}}, {"type": "Feature", "properties": {"norad_id": 30368, "name": "FENGYUN 1C DEB", "group": "fengyun-1c-debris", "lat": 7.615096415345019, "lon": 101.26482358687657, "alt_km": 971.9958355253684, "timestamp": "2025-12-22T22:44:21.251440+00:00", "meta": {"OBJECT_NAME": "FENGYUN 1C DEB", "OBJECT_ID": "1999-025ACF", "EPOCH": "2025-12-21T19:31:40.549728", "MEAN_MOTION": 13.7537438, "ECCENTRICITY": 0.01862315, "INCLINATION": 99.1885, "RA_OF_ASC_NODE": 101.4119, "ARG_OF_PERICENTER": 283.9908, "MEAN_ANOMALY": 230.8351, "EPHEMERIS_TYPE": 0, "CLASSIFICATION_TYPE": "U", "NORAD_CAT_ID": 30368, "ELEMENT_SET_NO": 999, "REV_AT_EPOCH": 94786, "BSTAR": 0.00043647066, "MEAN_MOTION_DOT": 4.32e-06, "MEAN_MOTION_DDOT": 0}, "tle": {"line1": "1 30368U 99025ACF 25355.81366377  .00000432  00000+0  43647-3 0  9991", "line2": "2 30368  99.1885 101.4119 0186231 283.9908 230.8351 13.75374380947866"}}, "geometry": {"type": "Point", "coordinates": [101.26482358687657, 7.615096415345019]}}]}